[
    {
        "Altitude(m)": 604983.0528502759,
        "Argument of Periapsis(deg)": 0.0,
        "Eccentricity": 0.0,
        "Inclination(deg)": 60.0,
        "Latitude(deg)": -0.09254857365444503,
        "Longitude(deg)": 65.08391647011997,
        "Mean Anomaly(deg)": -180.0,
        "RAAN(deg)": 345.0,
        "Satellite Name": "Test1 1529",
        "Satellite Number": 1529,
        "Semi-Major Axis(m)": 6980739.136638005,
        "Time(s)": 0
    },
    {
        "Altitude(m)": 605055.3316148156,
        "Argument of Periapsis(deg)": 0.00010418945913296404,
        "Eccentricity": 0.0,
        "Inclination(deg)": 60.0,
        "Latitude(deg)": -0.632958246276428,
        "Longitude(deg)": 65.35204178011094,
        "Mean Anomaly(deg)": -179.37989385453815,
        "RAAN(deg)": 344.99957995086027,
        "Satellite Name": "Test1 1529",
        "Satellite Number": 1529,
        "Semi-Major Axis(m)": 6980739.136638005,
        "Time(s)": 10
    },
    {
        "Altitude(m)": 605130.8194377815,
        "Argument of Periapsis(deg)": 0.0002083789182659281,
        "Eccentricity": 0.0,
        "Inclination(deg)": 60.0,
        "Latitude(deg)": -1.173337000887605,
        "Longitude(deg)": 65.62022471875221,
        "Mean Anomaly(deg)": -178.7597877090764,
        "RAAN(deg)": 344.99915990172053,
        "Satellite Name": "Test1 1529",
        "Satellite Number": 1529,
        "Semi-Major Axis(m)": 6980739.136638005,
        "Time(s)": 20
    },
    {
        "Altitude(m)": 605209.5053561574,
        "Argument of Periapsis(deg)": 0.00031256837739889213,
        "Eccentricity": 0.0,
        "Inclination(deg)": 60.0,
        "Latitude(deg)": -1.7136677570097663,
        "Longitude(deg)": 65.88851967381618,
        "Mean Anomaly(deg)": -178.1396815636145,
        "RAAN(deg)": 344.9987398525808,
        "Satellite Name": "Test1 1529",
        "Satellite Number": 1529,
        "Semi-Major Axis(m)": 6980739.136638005,
        "Time(s)": 30
    },
    {
        "Altitude(m)": 605291.3768830082,
        "Argument of Periapsis(deg)": 0.0004167578365318562,
        "Eccentricity": 0.0,
        "Inclination(deg)": 60.0,
        "Latitude(deg)": -2.25393341611442,
        "Longitude(deg)": 66.15698160086026,
        "Mean Anomaly(deg)": -177.51957541815273,
        "RAAN(deg)": 344.99831980344106,
        "Satellite Name": "Test1 1529",
        "Satellite Number": 1529,
        "Semi-Major Axis(m)": 6980739.136638005,
        "Time(s)": 40
    },
    {
        "Altitude(m)": 605376.4200107942,
        "Argument of Periapsis(deg)": 0.0005209472956648203,
        "Eccentricity": 0.0,
        "Inclination(deg)": 60.0,
        "Latitude(deg)": -2.794116851713008,
        "Longitude(deg)": 66.42566504664836,
        "Mean Anomaly(deg)": -176.8994692726909,
        "RAAN(deg)": 344.9978997543013,
        "Satellite Name": "Test1 1529",
        "Satellite Number": 1529,
        "Semi-Major Axis(m)": 6980739.136638005,
        "Time(s)": 50
    },
    {
        "Altitude(m)": 605464.6192154463,
        "Argument of Periapsis(deg)": 0.0006251367547977843,
        "Eccentricity": 0.0,
        "Inclination(deg)": 60.0,
        "Latitude(deg)": -3.334200899403591,
        "Longitude(deg)": 66.69462468552625,
        "Mean Anomaly(deg)": -176.27936312722903,
        "RAAN(deg)": 344.99747970516154,
        "Satellite Name": "Test1 1529",
        "Satellite Number": 1529,
        "Semi-Major Axis(m)": 6980739.136638005,
        "Time(s)": 60
    },
    {
        "Altitude(m)": 605555.9574611797,
        "Argument of Periapsis(deg)": 0.0007293262139307483,
        "Eccentricity": 0.0,
        "Inclination(deg)": 60.0,
        "Latitude(deg)": -3.874168346866026,
        "Longitude(deg)": 66.96391585591135,
        "Mean Anomaly(deg)": -175.65925698176721,
        "RAAN(deg)": 344.99705965602186,
        "Satellite Name": "Test1 1529",
        "Satellite Number": 1529,
        "Semi-Major Axis(m)": 6980739.136638005,
        "Time(s)": 70
    },
    {
        "Altitude(m)": 605650.4162060488,
        "Argument of Periapsis(deg)": 0.0008335156730637124,
        "Eccentricity": 0.0,
        "Inclination(deg)": 60.0,
        "Latitude(deg)": -4.41400192379031,
        "Longitude(deg)": 67.23359358404895,
        "Mean Anomaly(deg)": -175.03915083630537,
        "RAAN(deg)": 344.99663960688207,
        "Satellite Name": "Test1 1529",
        "Satellite Number": 1529,
        "Semi-Major Axis(m)": 6980739.136638005,
        "Time(s)": 80
    },
    {
        "Altitude(m)": 605747.9754082651,
        "Argument of Periapsis(deg)": 0.0009377051321966765,
        "Eccentricity": 0.0,
        "Inclination(deg)": 60.0,
        "Latitude(deg)": -4.953684291723396,
        "Longitude(deg)": 67.50371312081175,
        "Mean Anomaly(deg)": -174.41904469084352,
        "RAAN(deg)": 344.99621955774234,
        "Satellite Name": "Test1 1529",
        "Satellite Number": 1529,
        "Semi-Major Axis(m)": 6980739.136638005,
        "Time(s)": 90
    },
    {
        "Altitude(m)": 605848.6135332247,
        "Argument of Periapsis(deg)": 0.0010418945913296407,
        "Eccentricity": 0.0,
        "Inclination(deg)": 60.0,
        "Latitude(deg)": -5.493198033822043,
        "Longitude(deg)": 67.77433047869836,
        "Mean Anomaly(deg)": -173.79893854538167,
        "RAAN(deg)": 344.9957995086026,
        "Satellite Name": "Test1 1529",
        "Satellite Number": 1529,
        "Semi-Major Axis(m)": 6980739.136638005,
        "Time(s)": 100
    },
    {
        "Altitude(m)": 605952.307561291,
        "Argument of Periapsis(deg)": 0.0011460840504626045,
        "Eccentricity": 0.0,
        "Inclination(deg)": 60.0,
        "Latitude(deg)": -6.032525644498766,
        "Longitude(deg)": 68.04550145618605,
        "Mean Anomaly(deg)": -173.17883239991986,
        "RAAN(deg)": 344.99537945946287,
        "Satellite Name": "Test1 1529",
        "Satellite Number": 1529,
        "Semi-Major Axis(m)": 6980739.136638005,
        "Time(s)": 110
    },
    {
        "Altitude(m)": 606059.0329963,
        "Argument of Periapsis(deg)": 0.0012502735095955685,
        "Eccentricity": 0.0,
        "Inclination(deg)": 60.0,
        "Latitude(deg)": -6.571649518944315,
        "Longitude(deg)": 68.31728217521312,
        "Mean Anomaly(deg)": -172.558726254458,
        "RAAN(deg)": 344.99495941032313,
        "Satellite Name": "Test1 1529",
        "Satellite Number": 1529,
        "Semi-Major Axis(m)": 6980739.136638005,
        "Time(s)": 120
    },
    {
        "Altitude(m)": 606168.7638748038,
        "Argument of Periapsis(deg)": 0.0013544629687285324,
        "Eccentricity": 0.0,
        "Inclination(deg)": 60.0,
        "Latitude(deg)": -7.110551942513818,
        "Longitude(deg)": 68.58972961894727,
        "Mean Anomaly(deg)": -171.93862010899616,
        "RAAN(deg)": 344.99453936118334,
        "Satellite Name": "Test1 1529",
        "Satellite Number": 1529,
        "Semi-Major Axis(m)": 6980739.136638005,
        "Time(s)": 130
    },
    {
        "Altitude(m)": 606281.4727760089,
        "Argument of Periapsis(deg)": 0.0014586524278614966,
        "Eccentricity": 0.0,
        "Inclination(deg)": 60.0,
        "Latitude(deg)": -7.649215079963873,
        "Longitude(deg)": 68.86290065699568,
        "Mean Anomaly(deg)": -171.31851396353431,
        "RAAN(deg)": 344.9941193120436,
        "Satellite Name": "Test1 1529",
        "Satellite Number": 1529,
        "Semi-Major Axis(m)": 6980739.136638005,
        "Time(s)": 140
    },
    {
        "Altitude(m)": 606397.1308324609,
        "Argument of Periapsis(deg)": 0.0015628418869944607,
        "Eccentricity": 0.0,
        "Inclination(deg)": 60.0,
        "Latitude(deg)": -8.187620964522779,
        "Longitude(deg)": 69.13685258383195,
        "Mean Anomaly(deg)": -170.6984078180725,
        "RAAN(deg)": 344.99369926290393,
        "Satellite Name": "Test1 1529",
        "Satellite Number": 1529,
        "Semi-Major Axis(m)": 6980739.136638005,
        "Time(s)": 150
    },
    {
        "Altitude(m)": 606515.7077414109,
        "Argument of Periapsis(deg)": 0.0016670313461274247,
        "Eccentricity": 0.0,
        "Inclination(deg)": 60.0,
        "Latitude(deg)": -8.725751486780485,
        "Longitude(deg)": 69.41164365759647,
        "Mean Anomaly(deg)": -170.07830167261065,
        "RAAN(deg)": 344.99327921376414,
        "Satellite Name": "Test1 1529",
        "Satellite Number": 1529,
        "Semi-Major Axis(m)": 6980739.136638005,
        "Time(s)": 160
    },
    {
        "Altitude(m)": 606637.1717769115,
        "Argument of Periapsis(deg)": 0.0017712208052603888,
        "Eccentricity": 0.0,
        "Inclination(deg)": 60.0,
        "Latitude(deg)": -9.263588383384587,
        "Longitude(deg)": 69.6873321264263,
        "Mean Anomaly(deg)": -169.45819552714892,
        "RAAN(deg)": 344.9928591646244,
        "Satellite Name": "Test1 1529",
        "Satellite Number": 1529,
        "Semi-Major Axis(m)": 6980739.136638005,
        "Time(s)": 170
    },
    {
        "Altitude(m)": 606761.4898025887,
        "Argument of Periapsis(deg)": 0.001875410264393353,
        "Eccentricity": 0.0,
        "Inclination(deg)": 60.0,
        "Latitude(deg)": -9.801113225524421,
        "Longitude(deg)": 69.96397676808968,
        "Mean Anomaly(deg)": -168.83808938168704,
        "RAAN(deg)": 344.9924391154847,
        "Satellite Name": "Test1 1529",
        "Satellite Number": 1529,
        "Semi-Major Axis(m)": 6980739.136638005,
        "Time(s)": 180
    },
    {
        "Altitude(m)": 606888.627285126,
        "Argument of Periapsis(deg)": 0.0019795997235263173,
        "Eccentricity": 0.0,
        "Inclination(deg)": 60.0,
        "Latitude(deg)": -10.338307407187905,
        "Longitude(deg)": 70.24163743008225,
        "Mean Anomaly(deg)": -168.21798323622525,
        "RAAN(deg)": 344.99201906634494,
        "Satellite Name": "Test1 1529",
        "Satellite Number": 1529,
        "Semi-Major Axis(m)": 6980739.136638005,
        "Time(s)": 190
    }
]